UBAKUSAT                
1 43467U 98067NQ  19096.15767794  .00015434  00000-0  18563-3 0  9998
2 43467  51.6390 349.2187 0003254 141.4533 218.6693 15.61042966 51381
BATSU-CS1 (IRAZU)       
1 43468U 98067NR  19096.12798357  .00030580  00000-0  30651-3 0  9996
2 43468  51.6381 345.2672 0001600 150.1394 209.9693 15.65251516151417
CUBERRT                 
1 43546U 98067NU  19096.12155469  .00032042  00000-0  36615-3 0  9995
2 43546  51.6390 351.2209 0005296 204.2897 155.7848 15.61864005 41485
TEMPEST-D               
1 43547U 98067NV  19095.23463939  .00005371  00000-0  79615-4 0  9994
2 43547  51.6398 359.5435 0005493 197.4200 162.6605 15.57020295 40977
RAINCUBE                
1 43548U 98067NW  19096.08546618  .00015114  00000-0  19197-3 0  9999
2 43548  51.6387 353.2227 0005453 207.9163 152.1539 15.59614485 41587
HALOSAT                 
1 43549U 98067NX  19096.15087633  .00015904  00000-0  20195-3 0  9992
2 43549  51.6390 352.9143 0005220 212.4514 147.6159 15.59577485 41156
ENDUROSAT ONE           
1 43551U 98067NZ  19095.97916370  .00019553  00000-0  23641-3 0  9996
2 43551  51.6395 352.5218 0005495 218.3694 141.6910 15.60700577 41556
EQUISAT                 
1 43552U 98067PA  19095.14185025  .00016119  00000-0  20250-3 0  9999
2 43552  51.6406 357.4384 0005895 215.3218 144.7385 15.59845471 41372
AEROCUBE 12A            
1 43556U 18046C   19095.44892025  .00001134  00000-0  53027-4 0  9990
2 43556  51.6431  52.7237 0008508 160.3569 199.7740 15.28459802 40209
AEROCUBE 12B            
1 43557U 18046D   19095.52223252  .00000873  00000-0  43893-4 0  9999
2 43557  51.6436  52.4605 0008502 160.6569 199.4735 15.28365765 40168
UITMSAT-1               
1 43589U 98067PD  19095.14526246  .00018025  00000-0  22656-3 0  9993
2 43589  51.6383 358.1829 0005052 222.0870 137.9736 15.59743335 37108
MAYA-1                  
1 43590U 98067PE  19095.97423975  .00017816  00000-0  22356-3 0  9995
2 43590  51.6386 353.9724 0005234 225.4826 134.5740 15.59795366 37165
BHUTAN-1                
1 43591U 98067PF  19096.09560812  .00016925  00000-0  21227-3 0  9998
2 43591  51.6391 353.2932 0005232 228.4106 131.6439 15.59851581 37185
SIRIUSSAT-1             
1 43595U 98067PG  19096.17551672  .00016411  00000-0  21131-3 0  9999
2 43595  51.6382 353.8144 0003814 177.4471 182.6542 15.59184750 36369
SIRIUSSAT-2             
1 43596U 98067PH  19096.19825080  .00016660  00000-0  21571-3 0  9993
2 43596  51.6394 353.9908 0004367 180.4250 179.6739 15.59022832 36361
TANUSHA-3               
1 43597U 98067PJ  19095.87226985  .00021819  00000-0  26982-3 0  9990
2 43597  51.6379 354.7690 0003761 189.0021 171.0906 15.60036243 36321
SURFSAT                 
1 43614U 18070B   19096.17389120  .00002951  00000-0  81143-4 0  9998
2 43614  93.0316 333.3354 0014159 222.5867 137.4289 15.37176719 31115
CP7 (DAVE)              
1 43615U 18070C   19095.65557681  .00002760  00000-0  76052-4 0  9991
2 43615  93.0324 333.1227 0014214 224.3805 135.6310 15.37119883 31031
ELFIN-B                 
1 43616U 18070D   19095.62430938  .00004203  00000-0  11396-3 0  9997
2 43616  93.0280 333.0359 0014910 228.8958 131.1009 15.37572087 31034
ELFIN-A                 
1 43617U 18070E   19095.61985358  .00004357  00000-0  11805-3 0  9993
2 43617  93.0337 333.1915 0014096 224.9756 135.0356 15.37603178 31039
CUBEBEL-1 (BSUSAT-1)    
1 43666U 18083E   19096.16018942  .00001013  00000-0  53934-4 0  9994
2 43666  97.5274 121.1216 0017210  85.5216 346.4358 15.17405198 24137
DEBRISSAT-2             
1 43680U 98067PR  19095.87648073  .00021656  00000-0  26628-3 0  9995
2 43680  51.6388 354.8104 0003468 200.1484 159.9376 15.60192741 45060
CICERO 10               
1 43690U 18088A   19096.20259518  .00001425  00000-0  65042-4 0  9997
2 43690  85.0418   6.8847 0017336 113.3554 246.9512 15.19507870 22179
IRVINE01                
1 43693U 18088D   19095.48006379  .00003124  00000-0  13823-3 0  9991
2 43693  85.0398   7.1141 0021013 103.4274 256.9311 15.21038569 22081
PROXIMA I               
1 43694U 18088E   19095.50873506  .00001185  00000-0  50923-4 0  9997
2 43694  85.0363   6.9696 0021937  96.0308 264.3434 15.21242508 22096
PROXIMA II              
1 43696U 18088G   19095.57393199  .00001174  00000-0  50443-4 0  9996
2 43696  85.0364   6.9271 0021968  95.7922 264.5825 15.21248151 22108
FACSAT-1                
1 43721U 18096C   19095.84313519  .00001773  00000-0  71537-4 0  9994
2 43721  97.4659 165.8154 0017020 226.5260 133.4564 15.26037436 19476
CENTAURI-2              
1 43722U 18096D   19096.16099892  .00002484  00000-0  98549-4 0  9998
2 43722  97.4654 166.1555 0017201 225.9714 134.0108 15.26212004 19511
INNOSAT-2               
1 43738U 18096V   19096.19278249  .00003375  00000-0  12448-3 0  9996
2 43738  97.4656 166.5708 0023440 239.6468 120.2454 15.28252645 19556
SIRION PATHFINDER-2     
1 43759U 18099B   19096.16703824  .00000111  00000-0  15379-4 0  9993
2 43759  97.7505 169.0331 0013743 200.1366 159.9314 14.95093260 18439
CORVUS-BC 4             
1 43767U 18099K   19095.81102953  .00000577  00000-0  58652-4 0  9996
2 43767  97.7492 168.5523 0011253 203.0840 156.9876 14.94535468 18387
SHIELDS 1               
1 43850U 18104B   19095.63479102  .00000041  00000-0  00000+0 0  9994
2 43850  85.0240 105.3969 0012774 237.9247 122.0764 15.21004969 16768
STF-1                   
1 43852U 18104D   19095.48324172  .00000040  00000-0  00000+0 0  9994
2 43852  85.0304 105.6399 0012378 250.6205 109.3879 15.20433657 16738
LUME 1                  
1 43908U 18111AJ  19096.20858222  .00001254  00000-0  54171-4 0  9994
2 43908  97.2952   3.4479 0020073 249.5366 110.3716 15.24165079 15256
AOBA VELOX-IV           
1 43940U 19003J   19096.12197310  .00002153  00000-0  92455-4 0  9992
2 43940  97.2855 156.1916 0023795 335.4427  84.2109 15.23511917 11888
CATSAT-2                
1 44029U 98067PV  19096.12644381  .00013574  00000-0  20552-3 0  9990
2 44029  51.6407 358.7521 0004442 225.1130 134.9501 15.54972841 10126
DELPHINI                
1 44030U 98067PW  19095.86820839  .00014360  00000-0  21660-3 0  9991
2 44030  51.6401   0.0246 0004129 219.7528 140.3161 15.55022927 10052
UNITE                   
1 44031U 98067PX  19095.29554018  .00008871  00000-0  13845-3 0  9998
2 44031  51.6406   2.9498 0002942 211.2000 148.8816 15.54654450  9960
TECHEDSAT 8             
1 44032U 98067PY  19096.09832706  .00028777  00000-0  40617-3 0  9995
2 44032  51.6398 358.5631 0003231 204.5943 155.4895 15.56333902 10076
CATSAT-1                
1 44033U 98067PZ  19096.19065249  .00017217  00000-0  25851-3 0  9997
2 44033  51.6408 358.4308 0004268 225.5595 134.5047 15.54988637 10049
